#cP2019  6 24  0  0  0.00000000      96 ORBIT IGS14 HLM  IGS
## 2059  86400.00000000   900.00000000 58658 0.0000000000000
+   32   G01G02G03G04G05G06G07G08G09G10G11G12G13G14G15G16G17
+        G18G19G20G21G22G23G24G25G26G27G28G29G30G31G32  0  0
+          0  0  0  0  0  0  0  0  0  0  0  0  0  0  0  0  0
+          0  0  0  0  0  0  0  0  0  0  0  0  0  0  0  0  0
+          0  0  0  0  0  0  0  0  0  0  0  0  0  0  0  0  0
++         2  2  2  0  2  2  2  2  2  2  2  2  2  2  2  2  2
++         3  2  2  2  2  2  2  2  2  2  2  2  2  2  2  0  0
++         0  0  0  0  0  0  0  0  0  0  0  0  0  0  0  0  0
++         0  0  0  0  0  0  0  0  0  0  0  0  0  0  0  0  0
++         0  0  0  0  0  0  0  0  0  0  0  0  0  0  0  0  0
%c G  cc GPS ccc cccc cccc cccc cccc ccccc ccccc ccccc ccccc
%c cc cc ccc ccc cccc cccc cccc cccc ccccc ccccc ccccc ccccc
%f  1.2500000  1.025000000  0.00000000000  0.000000000000000
%f  0.0000000  0.000000000  0.00000000000  0.000000000000000
%i    0    0    0    0      0      0      0      0         0
%i    0    0    0    0      0      0      0      0         0
/* RAPID ORBIT COMBINATION FROM WEIGHTED AVERAGE OF:        
/* cod emr esa gfz jpl ngs sio usn whu                      
/* REFERENCED TO IGS TIME (IGST) AND TO WEIGHTED MEAN POLE: 
/* PCV:IGS14_2056 OL/AL:FES2004  NONE     Y  ORB:CMB CLK:CMB
*  2019  6 24 18 45  0.00000000
PG01  18760.008964   8334.852387  16840.647924    -49.603438  6  6  3  95       
PG02 -14361.087626 -22367.972375   2376.375843   -244.983927  6 10  8 106       
PG03  17099.091520  -2666.739181  20082.195757    184.307499  4  4  5 106       
PG04  17826.607036 -11484.790174 -15977.294065 999999.999999
PG05  -6843.083447 -17210.875651 -19084.937307      0.398324  3  5  4 105       
PG06  -3501.362967 -22502.165990  13680.479020    168.668266  9  8  8 123       
PG07  13732.281381  -6674.885000 -21484.068546    -51.046201  6  6  7 105       
PG08  23781.377130   5783.956413 -10545.142948   -148.660706  6  5  4  67       
PG09  22884.956841  -8755.369966 -10301.578987    384.895714  5  6  6  87       
PG10 -10871.941255  24044.664123   1867.442828      5.690814  5  7  2 106       
PG11  23867.916730   7243.944343   8209.289937   -576.944200  2  4  3  81       
PG12 -16040.753626   -429.879066  20914.072717    230.110628  5  5  5 108       
PG13 -16392.643484 -12774.196279 -16676.936576    -57.583216  7 10  5 111       
PG14    969.170331  15401.446075  21950.469724    -74.578139  5  5  1  91       
PG15 -24627.130938  -3987.445625  -9923.990562   -305.034882  6  6  5  95       
PG16   4881.186569  17032.102912 -19828.556606    -50.739367  7  8  5  75       
PG17   8520.536410 -14067.307760  21243.574930     77.297765  4  8  4 101       
PG18  19211.943773  15659.165561   9220.534299     64.612171  9 10  7           
PG19   1029.337190 -14577.556935  21873.718991   -302.488854  3  9  5  94       
PG20 -14222.139762  20810.459615  -8218.778520    525.592881  4  8  4  51       
PG21  -9061.523766  12746.336405 -20698.465074   -166.999017  2  6  5  84       
PG22  15111.763980   5421.046140  21389.332304   -721.823171  2  5  5 102       
PG23  26700.183862    -44.560352   2395.248376   -180.281811  2  1  5  91       
PG24 -20095.851116 -10287.749902  14093.197097    -67.897511  3  7  7 113       
PG25 -17830.202667  13176.423980  14224.156157   -768.377570  4  4  6  89       
PG26  -1798.465150  23508.574385 -12071.496191    235.084191  8  9  6  78       
PG27  14101.394655  12200.204961 -19142.563915   -166.694909  6  7  6  90       
PG28  12734.502552 -23279.676930   2625.950588    767.195060  3  7  6  97       
PG29 -25225.106922   4302.600143  -7177.773255    168.197786  3  4  7  98       
PG30   6261.656110 -17097.718519 -19247.929281   -130.214417  7  5  6  79       
PG31   3961.166439  23052.952601  12145.486579     28.851098  6  6  6  72       
PG32  -6982.873490  15058.259194  20771.473983    -29.884685  5  4  5 113       
*  2019  6 24 19  0  0.00000000
PG01  19680.379554   9923.263102  14862.430975    -49.612398  6  6  4  96       
PG02 -13938.970064 -22237.590853   5169.991917   -244.991872  7 10  8 109       
PG03  16161.261252   -498.110659  21014.133635    184.306122  4  3  4 109       
PG04  19546.387491 -11380.062836 -13908.570855 999999.999999
PG05  -5853.436663 -19052.744499 -17577.488954      0.398258  3  6  4  96       
PG06  -2414.704107 -21211.308516  15820.017689    168.658525  9  8  8 115       
PG07  15105.177986  -4592.661480 -21153.010728    -51.053123  5  7  7 107       
PG08  22463.476909   6088.992309 -12959.622472   -148.661521  6  6  5  60       
PG09  23931.677466  -8599.923345  -7722.479450    384.888565  5  6  6  78       
PG10 -11129.238797  23970.455882  -1004.541099      5.679977  5  7  2  83       
PG11  24416.657941   8025.028843   5601.258804   -576.936660  2  5  3  87       
PG12 -14878.071135  -2616.807213  21610.349507    230.107238  5  5  6 103       
PG13 -14404.611936 -12823.846487 -18392.655329    -57.581613  8  9  4 108       
PG14  -1470.827334  15394.219246  21910.867749    -74.576507  5  4  2  93       
PG15 -23462.706923  -4462.899835 -12286.716228   -305.033098  6  5  4  95       
PG16   3692.912901  18836.251231 -18348.342403    -50.742529  8  8  6  88       
PG17  10804.081395 -14059.677241  20153.776423     77.303644  5  8  3  96       
PG18  19595.212312  16578.165947   6581.941633     64.615676  9 11  8  80       
PG19   3579.778355 -14512.218250  21655.925221   -302.484719  4  9  5 105       
PG20 -14177.669627  19686.233962 -10729.321897    525.593404  4  8  3 104       
PG21 -10662.942588  10748.992643 -21038.620683   -166.992547  3  6  5 104       
PG22  14235.227822   7662.395525  21311.712565   -721.828244  1  6  5  98       
PG23  26338.255297    260.774347   5148.791226   -180.280371  2  1  5 104       
PG24 -20824.578185 -11622.035569  11876.031496    -67.897799  4  7  7 101       
PG25 -17224.154568  11485.145143  16281.511142   -768.380357  3  5  6  89       
PG26  -2537.045413  24543.225477  -9610.674301    235.092779  7  8  5  85       
PG27  11886.469750  12458.149194 -20417.794474   -166.704120  6  7  6  78       
PG28  12929.910073 -23243.739885   -261.812399    767.194402  4  6  6  98       
PG29 -25882.459165   4135.506423  -4375.211441    168.188995  3  4  8  97       
PG30   7583.644348 -15235.385102 -20323.120408   -130.221075  7  6  6  72       
PG31   2931.285981  21889.605652  14419.522135     28.848739  6  5  6  96       
PG32  -9293.216087  15160.640567  19753.422579    -29.870427  5  4  5 108       
*  2019  6 24 19 15  0.00000000
PG01  20539.908897  11266.874998  12629.087776    -49.621364  5  7  6  89       
PG02 -13310.658584 -21896.774682   7876.547413   -244.999779  7 11  8 110       
PG03  15306.330840   1794.831375  21582.625565    184.304725  3  3  3 104       
PG04  21022.798073 -11338.092849 -11600.267222 999999.999999
PG05  -5022.124732 -20768.529447 -15768.079096      0.398240  4  7  5  98       
PG06  -1119.489637 -19803.223948  17687.646716    168.648853  9  8  9  97       
PG07  16543.515892  -2634.309424 -20451.124501    -51.059977  5  7  7  93       
PG08  20905.975373   6505.204420 -15153.026145   -148.662712  7  6  5  77       
PG09  24689.652233  -8452.166716  -5010.716451    384.881423  5  6  5  75       
PG10 -11268.920919  23607.074792  -3859.007830      5.668913  4  7  3 100       
PG11  24729.202118   8641.717953   2893.951577   -576.928719  2  6  3  86       
PG12 -13812.217640  -4915.390871  21926.573762    230.103962  5  6  6  72       
PG13 -12246.557484 -12982.444402 -19795.061183    -57.579953  8  9  4  93       
PG14  -3885.082238  15514.625329  21505.015174    -74.575309  5  4  3  86       
PG15 -22078.106213  -5050.715254 -14444.939346   -305.031082  7  6  4 108       
PG16   2687.488582  20540.821664 -16552.180545    -50.745221  8  8  7  83       
PG17  12947.095229 -14168.816042  18728.031107     77.309220  6  7  2  88       
PG18  19826.630703  17240.418952   3829.215575     64.618772  9 11  8  89       
PG19   6081.772228 -14584.284910  21054.959294   -302.480541  5  8  4  96       
PG20 -14114.033505  18299.080259 -13054.523964    525.593456  5  7  3  93       
PG21 -12370.918272   8816.213684 -20989.380752   -166.985809  3  5  5 105       
PG22  13475.213719   9915.043772  20875.100134   -721.833082  1  6  5 105       
PG23  25693.951434    629.025523   7816.456318   -180.278768  3  2  4  88       
PG24 -21447.129102 -12719.094451   9456.318854    -67.897084  4  8  7  74       
PG25 -16625.473281   9561.162796  18051.534033   -768.383149  3  6  6  87       
PG26  -3121.810347  25343.649101  -6982.942096    235.101286  7  8  5  86       
PG27   9564.467582  12856.798504 -21347.515862   -166.713356  6  7  6  70       
PG28  12982.357074 -22925.311987  -3145.026783    767.194286  5  6  7  83       
PG29 -26226.943886   3980.892388  -1497.460575    168.180687  4  3  8  74       
PG30   9052.628859 -13357.980584 -21046.535699   -130.227686  7  6  6  69       
PG31   1700.149745  20583.895782  16440.187107     28.846487  6  4  6  85       
PG32 -11463.779060  15362.083767  18396.161371    -29.856195  5  4  5 105       
EOF
